KUIPER-00044            
1 64505U 25134F   25299.90600252 -.00003777  00000+0 -46619-3 0  9990
2 64505  51.8978 118.1835 0012521 185.6092 174.4732 14.79885872 20075
KUIPER-00046            
1 64506U 25134G   25299.90835050  .00004150  00000+0  57672-3 0  9992
2 64506  51.8983 114.6242 0012027 195.7464 164.3126 14.79632769 20127
KUIPER-00047            
1 64507U 25134H   25300.33336806 -.00354294  00000+0 -22287-1 0  9999
2 64507  51.8730  87.0980 0009692 217.2936  45.9980 15.10463773  4541
KUIPER-00048            
1 64508U 25134J   25300.33336806 -.00779660  00000+0 -60415-1 0  9993
2 64508  51.9016  86.4547 0002144 257.5219 113.5209 15.03515605  5077
KUIPER-00049            
1 64509U 25134K   25299.72228873  .00004624  00000+0  63510-3 0  9998
2 64509  51.8996 101.4538 0003651 178.6957 181.4015 14.79937487 20296
KUIPER-00050            
1 64510U 25134L   25299.82252272  .00006883  00000+0  63132-3 0  9990
2 64510  51.8893  99.8978 0005217 223.6394 136.4163 14.95857963 20324
KUIPER-00051            
1 64511U 25134M   25300.13023312 -.00020834  00000+0 -27140-2 0  9991
2 64511  51.9011  97.2086 0002031 204.2906 155.7961 14.79905076 20382
KUIPER-00052            
1 64512U 25134N   25300.08607719  .00157103  00000+0  16725-2 0  9990
2 64512  51.8703  70.7019 0006274 246.0866 113.9475 15.62951586 20740
